{
    "links": {
        "self": "http://www.neowsapp.com/rest/v1/neo/3693014?api_key=iIulBulltgU6a56xZRHN4H3l9WmuAYTsLGpBGhQ2"
    },
    "id": "3693014",
    "neo_reference_id": "3693014",
    "name": "(2014 TG18)",
    "designation": "2014 TG18",
    "nasa_jpl_url": "http://ssd.jpl.nasa.gov/sbdb.cgi?sstr=3693014",
    "absolute_magnitude_h": 22.3,
    "estimated_diameter": {
        "kilometers": {
            "estimated_diameter_min": 0.0921626549,
            "estimated_diameter_max": 0.2060819612
        },
        "meters": {
            "estimated_diameter_min": 92.1626548503,
            "estimated_diameter_max": 206.0819612321
        },
        "miles": {
            "estimated_diameter_min": 0.057267201,
            "estimated_diameter_max": 0.1280533543
        },
        "feet": {
            "estimated_diameter_min": 302.370924539,
            "estimated_diameter_max": 676.1219416887
        }
    },
    "is_potentially_hazardous_asteroid": false,
    "close_approach_data": [
        {
            "close_approach_date": "2014-09-27",
            "close_approach_date_full": "2014-Sep-27 03:42",
            "epoch_date_close_approach": 1411789320000,
            "relative_velocity": {
                "kilometers_per_second": "16.2016952166",
                "kilometers_per_hour": "58326.1027799317",
                "miles_per_hour": "36241.5720301192"
            },
            "miss_distance": {
                "astronomical": "0.02365984",
                "lunar": "9.20367776",
                "kilometers": "3539461.6685408",
                "miles": "2199319.49703104"
            },
            "orbiting_body": "Earth"
        },
        {
            "close_approach_date": "2017-05-27",
            "close_approach_date_full": "2017-May-27 12:10",
            "epoch_date_close_approach": 1495887000000,
            "relative_velocity": {
                "kilometers_per_second": "13.7445488733",
                "kilometers_per_hour": "49480.375943714",
                "miles_per_hour": "30745.1813745816"
            },
            "miss_distance": {
                "astronomical": "0.2139317508",
                "lunar": "83.2194510612",
                "kilometers": "32003734.245050796",
                "miles": "19886198.3246051448"
            },
            "orbiting_body": "Earth"
        }
    ],
    "orbital_data": {
        "orbit_id": "7",
        "orbit_determination_date": "2017-04-06 08:38:12",
        "first_observation_date": "2014-10-03",
        "last_observation_date": "2014-10-24",
        "data_arc_in_days": 21,
        "observations_used": 34,
        "orbit_uncertainty": "7",
        "minimum_orbit_intersection": ".00522945",
        "jupiter_tisserand_invariant": "3.549",
        "epoch_osculation": "2459000.5",
        "eccentricity": ".5860483540379162",
        "semi_major_axis": "2.03009909299319",
        "inclination": "13.09376594266436",
        "ascending_node_longitude": "180.4909110222188",
        "orbital_period": "1056.511631285444",
        "perihelion_distance": ".8403628610106645",
        "perihelion_argument": "125.7933941227658",
        "aphelion_distance": "3.219835324975716",
        "perihelion_time": "2459001.348217647622",
        "mean_anomaly": "359.7109749253094",
        "mean_motion": ".3407440006713346",
        "equinox": "J2000",
        "orbit_class": {
            "orbit_class_type": "APO",
            "orbit_class_description": "Near-Earth asteroid orbits which cross the Earth’s orbit similar to that of 1862 Apollo",
            "orbit_class_range": "a (semi-major axis) > 1.0 AU; q (perihelion) < 1.017 AU"
        }
    },
    "is_sentry_object": false
}